[{"OBJECT_NAME":"STARLINK-1656","OBJECT_ID":"2020-062AE","EPOCH":"2026-03-09T22:08:49.885440","MEAN_MOTION":15.52163178,"ECCENTRICITY":0.00027689,"INCLINATION":53.0506,"RA_OF_ASC_NODE":358.4215,"ARG_OF_PERICENTER":148.6798,"MEAN_ANOMALY":211.4376,"EPHEMERIS_TYPE":0,"CLASSIFICATION_TYPE":"U","NORAD_CAT_ID":46353,"ELEMENT_SET_NO":999,"REV_AT_EPOCH":30458,"BSTAR":0.0018174616,"MEAN_MOTION_DOT":0.00113057,"MEAN_MOTION_DDOT":0},{"OBJECT_NAME":"STARLINK-36532","OBJECT_ID":"2026-020M","EPOCH":"2026-03-09T22:00:01.999584","MEAN_MOTION":15.65089821,"ECCENTRICITY":0.00012424,"INCLINATION":42.9995,"RA_OF_ASC_NODE":140.3271,"ARG_OF_PERICENTER":284.5144,"MEAN_ANOMALY":202.1099,"EPHEMERIS_TYPE":0,"CLASSIFICATION_TYPE":"U","NORAD_CAT_ID":67628,"ELEMENT_SET_NO":999,"REV_AT_EPOCH":604,"BSTAR":-0.022005672,"MEAN_MOTION_DOT":-0.01966844,"MEAN_MOTION_DDOT":0}]
